STARLINK-31171          
1 58834U 24017J   26068.56937101 -.00000681  00000+0 -10870-4 0  9992
2 58834  53.1616 181.3233 0001297  95.9703 264.1445 15.30187631120368
LYNK TOWER 6            
1 59123U 24043AB  26068.89488777  .00011440  00000+0  40142-3 0  9996
2 59123  97.5426 204.1954 0009749 232.0253 128.0107 15.29548678111845
